{
  "links" : {
    "next" : "https://api.nasa.gov/neo/rest/v1/feed?start_date=2013-10-09&end_date=2013-10-09&detailed=true&api_key=t0TVs3DtDT2H8Oy2Zy8m2eVrNsAVKAexjcZXUckd",
    "prev" : "https://api.nasa.gov/neo/rest/v1/feed?start_date=2013-10-07&end_date=2013-10-07&detailed=true&api_key=t0TVs3DtDT2H8Oy2Zy8m2eVrNsAVKAexjcZXUckd",
    "self" : "https://api.nasa.gov/neo/rest/v1/feed?start_date=2013-10-08&end_date=2013-10-08&detailed=true&api_key=t0TVs3DtDT2H8Oy2Zy8m2eVrNsAVKAexjcZXUckd"
  },
  "element_count" : 11,
  "near_earth_objects" : {
    "2013-10-08" : [ {
      "links" : {
        "self" : "https://api.nasa.gov/neo/rest/v1/neo/3767013?api_key=t0TVs3DtDT2H8Oy2Zy8m2eVrNsAVKAexjcZXUckd"
      },
      "neo_reference_id" : "3767013",
      "name" : "(2017 BY6)",
      "nasa_jpl_url" : "http://ssd.jpl.nasa.gov/sbdb.cgi?sstr=3767013",
      "absolute_magnitude_h" : 26.0,
      "estimated_diameter" : {
        "kilometers" : {
          "estimated_diameter_min" : 0.0167708462,
          "estimated_diameter_max" : 0.0375007522
        },
        "meters" : {
          "estimated_diameter_min" : 16.7708462163,
          "estimated_diameter_max" : 37.5007521798
        },
        "miles" : {
          "estimated_diameter_min" : 0.0104209175,
          "estimated_diameter_max" : 0.0233018799
        },
        "feet" : {
          "estimated_diameter_min" : 55.0224631002,
          "estimated_diameter_max" : 123.0339677816
        }
      },
      "is_potentially_hazardous_asteroid" : false,
      "close_approach_data" : [ {
        "close_approach_date" : "2013-10-08",
        "epoch_date_close_approach" : 1381215600000,
        "relative_velocity" : {
          "kilometers_per_second" : "5.4613669792",
          "kilometers_per_hour" : "19660.921125158",
          "miles_per_hour" : "12216.5317957961"
        },
        "miss_distance" : {
          "astronomical" : "0.1715583279",
          "lunar" : "66.7361831665",
          "kilometers" : "25664760",
          "miles" : "15947342"
        },
        "orbiting_body" : "Earth"
      } ],
      "orbital_data" : {
        "orbit_id" : "3",
        "orbit_determination_date" : "2017-04-06 08:20:47",
        "orbit_uncertainty" : "8",
        "minimum_orbit_intersection" : ".0427321",
        "jupiter_tisserand_invariant" : "4.887",
        "epoch_osculation" : "2457781.5",
        "eccentricity" : ".2925241222107141",
        "semi_major_axis" : "1.321308211927577",
        "inclination" : "10.02918831612214",
        "ascending_node_longitude" : "308.3553891678984",
        "orbital_period" : "554.7593467345105",
        "perihelion_distance" : ".9347936870636546",
        "perihelion_argument" : "120.8549290328632",
        "aphelion_distance" : "1.7078227367915",
        "perihelion_time" : "2457731.099655921246",
        "mean_anomaly" : "32.70629683871666",
        "mean_motion" : ".6489300308666708",
        "equinox" : "J2000"
      }
    }, {
      "links" : {
        "self" : "https://api.nasa.gov/neo/rest/v1/neo/3605885?api_key=t0TVs3DtDT2H8Oy2Zy8m2eVrNsAVKAexjcZXUckd"
      },
      "neo_reference_id" : "3605885",
      "name" : "(2012 MO3)",
      "nasa_jpl_url" : "http://ssd.jpl.nasa.gov/sbdb.cgi?sstr=3605885",
      "absolute_magnitude_h" : 20.8,
      "estimated_diameter" : {
        "kilometers" : {
          "estimated_diameter_min" : 0.1838886721,
          "estimated_diameter_max" : 0.411187571
        },
        "meters" : {
          "estimated_diameter_min" : 183.8886720703,
          "estimated_diameter_max" : 411.1875710413
        },
        "miles" : {
          "estimated_diameter_min" : 0.1142630881,
          "estimated_diameter_max" : 0.2555000322
        },
        "feet" : {
          "estimated_diameter_min" : 603.309310875,
          "estimated_diameter_max" : 1349.040630575
        }
      },
      "is_potentially_hazardous_asteroid" : false,
      "close_approach_data" : [ {
        "close_approach_date" : "2013-10-08",
        "epoch_date_close_approach" : 1381215600000,
        "relative_velocity" : {
          "kilometers_per_second" : "9.509193866",
          "kilometers_per_hour" : "34233.0979174293",
          "miles_per_hour" : "21271.1157587493"
        },
        "miss_distance" : {
          "astronomical" : "0.2928877274",
          "lunar" : "113.9333190918",
          "kilometers" : "43815380",
          "miles" : "27225614"
        },
        "orbiting_body" : "Earth"
      } ],
      "orbital_data" : {
        "orbit_id" : "20",
        "orbit_determination_date" : "2017-04-06 08:49:31",
        "orbit_uncertainty" : "2",
        "minimum_orbit_intersection" : ".087694",
        "jupiter_tisserand_invariant" : "6.281",
        "epoch_osculation" : "2458000.5",
        "eccentricity" : ".4665039428488042",
        "semi_major_axis" : ".9373697168564233",
        "inclination" : "13.43041949039364",
        "ascending_node_longitude" : "220.1490180896089",
        "orbital_period" : "331.4857054292076",
        "perihelion_distance" : ".5000830480358346",
        "perihelion_argument" : "279.9740417372709",
        "aphelion_distance" : "1.374656385677012",
        "perihelion_time" : "2457983.148802477827",
        "mean_anomaly" : "18.84374199452879",
        "mean_motion" : "1.086019680800028",
        "equinox" : "J2000"
      }
    } ]
  }
}